{"type":"FeatureCollection","features":[{"type":"Feature","geometry":{"geodesic":false,"type":"Polygon","coordinates":[[[124.44498713277603,43.523052696534776],[124.50665521898365,43.523052696534776],[124.50665521898365,43.56803838403291],[124.44498713277603,43.56803838403291],[124.44498713277603,43.523052696534776]]]},"id":"0","properties":{"buffer_m":2500,"id":"NE_MAIZE","lat":43.545541219154174,"lon":124.47577100735187,"note":"","roi_method":"point_buffer_bounds","side_m":5000,"year":2024}}]}